[{"OBJECT_NAME":"ORBCOMM FM118","OBJECT_ID":"2015-081E","EPOCH":"2026-03-09T11:40:57.402336","MEAN_MOTION":14.58732197,"ECCENTRICITY":0.00039245,"INCLINATION":47.0034,"RA_OF_ASC_NODE":113.1194,"ARG_OF_PERICENTER":286.8765,"MEAN_ANOMALY":73.169,"EPHEMERIS_TYPE":0,"CLASSIFICATION_TYPE":"U","NORAD_CAT_ID":41183,"ELEMENT_SET_NO":999,"REV_AT_EPOCH":54317,"BSTAR":0.00026393443,"MEAN_MOTION_DOT":1.073e-5,"MEAN_MOTION_DDOT":0},{"OBJECT_NAME":"DELTA 1 DEB","OBJECT_ID":"1975-004BN","EPOCH":"2026-03-09T22:07:12.189504","MEAN_MOTION":14.6803335,"ECCENTRICITY":0.00381545,"INCLINATION":97.9234,"RA_OF_ASC_NODE":320.8283,"ARG_OF_PERICENTER":329.8904,"MEAN_ANOMALY":30.0108,"EPHEMERIS_TYPE":0,"CLASSIFICATION_TYPE":"U","NORAD_CAT_ID":8980,"ELEMENT_SET_NO":999,"REV_AT_EPOCH":63264,"BSTAR":0.00027505067,"MEAN_MOTION_DOT":1.546e-5,"MEAN_MOTION_DDOT":0}]
